{"type":"Feature","properties":{"nom":"Orsay","code":"91471","codeDepartement":"91","siren":"219104718","codeEpci":"200056232","codeRegion":"11","codesPostaux":["91400"],"population":16498},"geometry":{"type":"Polygon","coordinates":[[[2.170536,48.706557],[2.170753,48.707079],[2.171466,48.709021],[2.172198,48.711657],[2.172362,48.713559],[2.172468,48.714908],[2.17474,48.715592],[2.1757,48.71591],[2.182669,48.717983],[2.184818,48.718181],[2.185627,48.718234],[2.186206,48.718336],[2.187129,48.718424],[2.187946,48.718524],[2.189166,48.718564],[2.190238,48.718759],[2.191061,48.718833],[2.191797,48.718837],[2.192435,48.718742],[2.192828,48.718641],[2.193294,48.718498],[2.193245,48.718228],[2.19284,48.716551],[2.19217,48.714069],[2.192005,48.713435],[2.191872,48.712801],[2.19174,48.712317],[2.193743,48.711689],[2.194478,48.711486],[2.194418,48.711431],[2.192749,48.709307],[2.192724,48.70926],[2.19321,48.70915],[2.195425,48.708618],[2.195755,48.708554],[2.196323,48.708488],[2.197695,48.708843],[2.198237,48.709235],[2.198288,48.709296],[2.199883,48.709245],[2.200434,48.709137],[2.200928,48.709009],[2.201081,48.708992],[2.20151,48.708778],[2.20185,48.708558],[2.202217,48.708382],[2.202765,48.708232],[2.20291,48.708173],[2.203441,48.707881],[2.203407,48.707615],[2.2036,48.707457],[2.204,48.707367],[2.203824,48.706828],[2.203625,48.706872],[2.203622,48.705576],[2.204167,48.705685],[2.204338,48.70461],[2.203819,48.702665],[2.20372,48.702257],[2.204113,48.702179],[2.205734,48.702073],[2.20576,48.702038],[2.206794,48.702059],[2.207219,48.702017],[2.207664,48.701868],[2.207885,48.701846],[2.209156,48.701628],[2.209633,48.701537],[2.209426,48.701105],[2.209019,48.700672],[2.208878,48.70023],[2.208795,48.699871],[2.208686,48.699639],[2.208385,48.699247],[2.208284,48.699084],[2.208058,48.698833],[2.207682,48.698567],[2.2071,48.698194],[2.206747,48.697931],[2.206606,48.697787],[2.206536,48.697591],[2.2066,48.697029],[2.206555,48.696797],[2.20646,48.696538],[2.206194,48.695668],[2.206017,48.695504],[2.205585,48.695353],[2.205432,48.695205],[2.205455,48.695108],[2.206133,48.694513],[2.206307,48.694383],[2.207074,48.69403],[2.207615,48.693737],[2.207734,48.693584],[2.207575,48.693225],[2.207454,48.693044],[2.207374,48.692764],[2.20718,48.692743],[2.205122,48.692278],[2.204719,48.692144],[2.204533,48.691999],[2.204433,48.691789],[2.204273,48.691711],[2.204172,48.691592],[2.204013,48.691307],[2.203996,48.69118],[2.203841,48.691033],[2.203611,48.690973],[2.203286,48.690972],[2.202509,48.690882],[2.201169,48.690755],[2.200911,48.690738],[2.200833,48.689612],[2.200786,48.689497],[2.200677,48.689459],[2.199409,48.689261],[2.199137,48.689199],[2.198937,48.689212],[2.196992,48.689619],[2.196074,48.689968],[2.195228,48.69025],[2.194622,48.690435],[2.194565,48.69047],[2.193543,48.690474],[2.193129,48.69045],[2.192962,48.690417],[2.191067,48.690419],[2.191021,48.690291],[2.190708,48.689671],[2.190561,48.68932],[2.190006,48.688214],[2.190005,48.688033],[2.189933,48.687823],[2.18975,48.687655],[2.18968,48.687419],[2.189334,48.686576],[2.189114,48.685799],[2.189036,48.685353],[2.188875,48.685047],[2.188353,48.684447],[2.188405,48.684383],[2.188573,48.683968],[2.188709,48.683702],[2.188133,48.683383],[2.18572,48.681731],[2.18546,48.680812],[2.185591,48.680796],[2.184838,48.678393],[2.184311,48.676688],[2.183941,48.675515],[2.181923,48.675832],[2.18196,48.675939],[2.180252,48.676933],[2.177392,48.678344],[2.17767,48.67899],[2.176701,48.679247],[2.17689,48.679592],[2.17703,48.679762],[2.177596,48.680516],[2.178573,48.681699],[2.17841,48.681766],[2.178471,48.681894],[2.178949,48.682452],[2.180007,48.683562],[2.180005,48.683811],[2.180553,48.683821],[2.180809,48.684019],[2.18093,48.683401],[2.181247,48.683206],[2.182317,48.683311],[2.182015,48.684991],[2.180528,48.685016],[2.178985,48.684594],[2.178849,48.684863],[2.17909,48.685446],[2.179735,48.686562],[2.179728,48.686602],[2.179405,48.686739],[2.179611,48.687469],[2.17932,48.687638],[2.179199,48.687751],[2.179055,48.687995],[2.178834,48.688156],[2.178569,48.688263],[2.178235,48.688339],[2.177815,48.688523],[2.177361,48.688761],[2.177153,48.688945],[2.176949,48.689319],[2.177097,48.689398],[2.176757,48.689547],[2.176111,48.6898],[2.175483,48.690008],[2.175521,48.690205],[2.174286,48.690303],[2.174242,48.690289],[2.174041,48.690763],[2.174099,48.690923],[2.174377,48.691115],[2.174796,48.691369],[2.175099,48.691617],[2.175248,48.691826],[2.175336,48.692166],[2.17534,48.692776],[2.175316,48.692864],[2.175095,48.69325],[2.174779,48.693286],[2.174894,48.693841],[2.174248,48.693902],[2.174351,48.694425],[2.173675,48.694487],[2.173685,48.694855],[2.173237,48.694861],[2.173177,48.695252],[2.175268,48.6954],[2.176166,48.695402],[2.176046,48.69596],[2.176265,48.696008],[2.176016,48.696512],[2.176045,48.696519],[2.175579,48.699952],[2.175496,48.700306],[2.175287,48.700294],[2.175036,48.700366],[2.174403,48.700744],[2.173978,48.700895],[2.172867,48.701132],[2.172647,48.701142],[2.172278,48.701089],[2.171906,48.701063],[2.169609,48.701124],[2.169917,48.704202],[2.17055,48.706525],[2.170536,48.706557]]]}}
